CYGFM07                 
1 41890U 16078G   26091.13724990  .00035435  00000+0  48822-3 0  9993
2 41890  34.9468  20.9671 0006800 200.5552 159.4899 15.56152515516975
CYGFM03                 
1 41891U 16078H   26091.49319444  .00031253  00000+0  43067-3 0  9997
2 41891  34.9424  20.5783 0005733 193.0483 167.0093 15.56175385517007
FENGYUN 3D              
1 43010U 17072A   26091.47032251  .00000482  00000+0  24976-3 0  9991
2 43010  99.0060  64.5332 0000506 290.5032  69.6089 14.19723280434106
NOAA 20 (JPSS-1)        
1 43013U 17073A   26091.45409212  .00000086  00000+0  61933-4 0  9993
2 43013  98.7719  31.6186 0001983 107.1249 253.0144 14.19541965433581
GOES 17                 
1 43226U 18022A   26091.44885442 -.00000191  00000+0  00000+0 0  9997
2 43226   0.7413  86.8648 0001316 247.1617 287.8673  1.00272001 29659
FENGYUN 2H              
1 43491U 18050A   26091.48222123 -.00000133  00000+0  00000+0 0  9993
2 43491   2.8337  79.9869 0001468 174.5180 187.9819  1.00270454 28678
METOP-C                 
1 43689U 18087A   26091.48626794  .00000134  00000+0  81317-4 0  9999
2 43689  98.6718 152.4670 0001872  68.6928 291.4449 14.21504526383932
GEO-KOMPSAT-2A          
1 43823U 18100A   26091.42068764 -.00000354  00000+0  00000+0 0  9996
2 43823   0.0524  42.9652 0001945  14.5704  51.9343  1.00269638 26863
METEOR-M2 2             
1 44387U 19038A   26091.46501519  .00000166  00000+0  91630-4 0  9991
2 44387  98.9107  77.6347 0000464 177.9693 182.1488 14.24343080350371
ARKTIKA-M 1             
1 47719U 21016A   26086.24697042 -.00000098  00000+0  00000+0 0  9990
2 47719  63.2179  69.3783 7253959 269.5617  15.0995  2.00616454 37142
FENGYUN 3E              
1 49008U 21062A   26091.53347779  .00000174  00000+0  10270-3 0  9999
2 49008  98.7510  95.7928 0001140 354.7899   5.3265 14.19897778245704
GOES 18                 
1 51850U 22021A   26091.51364270  .00000087  00000+0  00000+0 0  9995
2 51850   0.0558  41.2950 0000612  26.8686 169.6054  1.00272806  5827
NOAA 21 (JPSS-2)        
1 54234U 22150A   26091.48854356  .00000096  00000+0  66364-4 0  9992
2 54234  98.7581  31.4967 0002688  66.8741 293.2718 14.19558160175661
METEOSAT-12 (MTG-I1)    
1 54743U 22170C   26091.32388058 -.00000017  00000+0  00000+0 0  9997
2 54743   0.7359  26.0003 0001696 296.2303 343.7115  1.00273796 12201
TIANMU-1 03             
1 55973U 23039A   26091.48879499  .00018316  00000+0  38955-3 0  9993
2 55973  97.5193 262.5964 0003238  37.0960 323.0512 15.45032386168985
TIANMU-1 04             
1 55974U 23039B   26091.50593977  .00023721  00000+0  49545-3 0  9994
2 55974  97.5129 261.7685 0003714  28.8377 331.3076 15.45511034168995
TIANMU-1 05             
1 55975U 23039C   26091.53103925  .00018042  00000+0  38451-3 0  9992
2 55975  97.5175 262.2828 0003419  56.4028 303.7546 15.44974659168972
TIANMU-1 06             
1 55976U 23039D   26091.50542844  .00018470  00000+0  38671-3 0  9996
2 55976  97.5185 262.8178 0003616  49.9297 310.2268 15.45491329168997
FENGYUN 3G              
1 56232U 23055A   26091.35243606  .00032231  00000+0  50679-3 0  9990
2 56232  49.9943  22.2184 0004413  29.6602 330.4615 15.53266976168067
METEOR-M2 3             
1 57166U 23091A   26091.51242469  .00000020  00000+0  27330-4 0  9991
2 57166  98.6165 148.0312 0004635  46.7465 313.4100 14.24040011143604
TIANMU-1 07             
1 57399U 23101A   26091.48750969  .00007255  00000+0  25765-3 0  9992
2 57399  97.2679 143.9239 0004583  87.8828 272.2937 15.29315808149926
TIANMU-1 08             
1 57400U 23101B   26090.01593531  .00000377  00000+0  15776-4 0  9993
2 57400  97.2674 142.2648 0005592  72.2016 287.9835 15.29380885149699
TIANMU-1 09             
1 57401U 23101C   26091.50431777  .00007920  00000+0  28082-3 0  9996
2 57401  97.2626 143.1783 0005038  86.2541 273.9275 15.29336113149924
TIANMU-1 10             
1 57402U 23101D   26091.47174961  .00007311  00000+0  25892-3 0  9992
2 57402  97.2704 144.1161 0006323  74.1632 286.0305 15.29396697149919
FENGYUN 3F              
1 57490U 23111A   26091.51900704  .00000079  00000+0  57513-4 0  9997
2 57490  98.6883 162.9408 0000839  82.8428 277.2844 14.19924724137986
ARKTIKA-M 2             
1 58584U 23198A   26089.99739019  .00000142  00000+0  00000+0 0  9990
2 58584  63.2169 163.0455 6882975 267.6817  18.8399  2.00607099 16755
TIANMU-1 11             
1 58645U 23205A   26091.49384579  .00005986  00000+0  23415-3 0  9992
2 58645  97.3512 114.2759 0007076 275.7550  84.2882 15.26185250125822
TIANMU-1 12             
1 58646U 23205B   26091.52730735  .00006375  00000+0  24972-3 0  9998
2 58646  97.3501 114.0818 0005451 253.1026 106.9615 15.26121868125818
TIANMU-1 13             
1 58647U 23205C   26091.49187753  .00006172  00000+0  24150-3 0  9994
2 58647  97.3528 114.2960 0006096 229.5875 130.4832 15.26171595125807
TIANMU-1 14             
1 58648U 23205D   26091.47682236  .00006455  00000+0  25257-3 0  9992
2 58648  97.3464 113.5294 0006725 235.9938 124.0662 15.26145655125807
TIANMU-1 19             
1 58660U 23208A   26091.55397611  .00010214  00000+0  35069-3 0  9998
2 58660  97.4412 207.5757 0004414 212.7143 147.3825 15.30319948125607
TIANMU-1 20             
1 58661U 23208B   26091.58592633  .00011002  00000+0  36382-3 0  9998
2 58661  97.4352 208.1645 0006305 227.4620 132.6089 15.31507628125691
TIANMU-1 21             
1 58662U 23208C   26091.55385289  .00013068  00000+0  40428-3 0  9993
2 58662  97.4409 210.4954 0006386 221.6716 138.4041 15.33600242125819
TIANMU-1 22             
1 58663U 23208D   26091.57758876  .00009275  00000+0  32292-3 0  9997
2 58663  97.4408 207.5950 0002600 236.4420 123.6572 15.29900325125616
TIANMU-1 15             
1 58700U 24004A   26091.53995360  .00007339  00000+0  28669-3 0  9993
2 58700  97.4672 277.7544 0005685 255.1169 104.9440 15.26166845124087
TIANMU-1 16             
1 58701U 24004B   26091.52290932  .00007272  00000+0  28385-3 0  9997
2 58701  97.4616 277.0442 0004096 257.8710 102.2069 15.26203569124085
TIANMU-1 17             
1 58702U 24004C   26091.50471922  .00006898  00000+0  26915-3 0  9996
2 58702  97.4645 277.4903 0003308 258.3896 101.6971 15.26237853124077
TIANMU-1 18             
1 58703U 24004D   26091.55630602  .00006551  00000+0  25627-3 0  9999
2 58703  97.4663 277.7568 0002696 255.3582 104.7358 15.26176466124082
INSAT-3DS               
1 58990U 24033A   26091.15669870 -.00000167  00000+0  00000+0 0  9996
2 58990   0.0292 109.8523 0002106 263.3868 314.7645  1.00271770 46295
METEOR-M2 4             
1 59051U 24039A   26091.51044601  .00000032  00000+0  34163-4 0  9992
2 59051  98.6942  51.8026 0007798  38.8344 321.3393 14.22420771108365
GOES 19                 
1 60133U 24119A   26091.45171443  .00000000  00000+0  00000+0 0  9995
2 60133   0.0166  89.7328 0000968 327.7445 219.7613  1.00269932  6197
FENGYUN 3H              
1 65815U 25219A   26091.51504462  .00000107  00000+0  70841-4 0  9990
2 65815  98.6715  33.7979 0000776  64.0443 296.0813 14.19938592 26505
OSCAR 7 (AO-7)          
1 07530U 74089B   26091.04626280 -.00000029  00000+0  11198-3 0  9993
2 07530 101.9954 103.4770 0011871 278.5152  88.6001 12.53696898350857
PHASE 3B (AO-10)        
1 14129U 83058B   26090.67242603  .00000076  00000+0  00000+0 0  9999
2 14129  25.9069 232.5317 6038665  94.2358 332.5154  2.05870417293896
UOSAT 2 (UO-11)         
1 14781U 84021B   26091.36388909  .00001591  00000+0  16820-3 0  9995
2 14781  97.7983  57.8406 0009161  80.1833 280.0419 14.90584629245683
LUSAT (LO-19)           
1 20442U 90005G   26091.50560315  .00000185  00000+0  82639-4 0  9994
2 20442  98.8915 111.1774 0012628  73.0282 287.2285 14.34097654891406
EYESAT A (AO-27)        
1 22825U 93061C   26091.43265946  .00000124  00000+0  64171-4 0  9994
2 22825  98.6937 158.8548 0007717 332.6151  27.4624 14.30920534696024
ITAMSAT (IO-26)         
1 22826U 93061D   26091.43488173  .00000137  00000+0  68472-4 0  9996
2 22826  98.6885 158.7668 0007968 314.2128  45.8400 14.31345342696336
RADIO ROSTO (RS15)      
1 23439U 94085A   26091.39992832 -.00000050  00000+0 -21375-3 0  9997
2 23439  64.8159  67.3995 0153535  17.8120 342.8105 11.27583797287242
JAS-2 (FO-29)           
1 24278U 96046B   26091.41786194  .00000001  00000+0  39633-4 0  9994
2 24278  98.5342 310.7593 0348962 295.7333  60.8172 13.53270114462786
TECHSAT 1B (GO-32)      
1 25397U 98043D   26091.42887264  .00000082  00000+0  55499-4 0  9994
2 25397  99.0050  82.2624 0002338  83.0060 277.1384 14.24412226440400
ISS (ZARYA)             
1 25544U 98067A   26091.42366593  .00007873  00000+0  15247-3 0  9992
2 25544  51.6332 319.9685 0006221 259.3790 100.6498 15.48695066559859
PCSAT (NO-44)           
1 26931U 01043C   26091.39840959  .00000200  00000+0  10549-3 0  9997
2 26931  67.0492  82.8780 0006859 264.6832  95.3487 14.31923513279458
SAUDISAT 1C (SO-50)     
1 27607U 02058C   26091.48034765  .00001560  00000+0  20113-3 0  9993
2 27607  64.5557   6.2830 0075446 276.4818  82.7702 14.82871281253083
CUTE-1 (CO-55)          
1 27844U 03031E   26091.46560875  .00000375  00000+0  18132-3 0  9993
2 27844  98.6771 100.9823 0010495  53.1191 307.0948 14.24284937180753
CUBESAT XI-IV (CO-57)   
1 27848U 03031J   26091.48604625  .00000337  00000+0  16693-3 0  9999
2 27848  98.6804 100.7770 0010561  69.5652 290.6660 14.23577376180467
MOZHAETS 4 (RS22)       
1 27939U 03042A   26091.54657396  .00001491  00000+0  23859-3 0  9996
2 27939  98.3453 273.7469 0011907 146.8216 305.9741 14.73318428204262
CUBESAT XI-V            
1 28895U 05043F   26091.41403103  .00001995  00000+0  32259-3 0  9995
2 28895  98.2875 245.4747 0015308  90.1636 270.1325 14.72413641 90459
CUTE-1.7+APD II (CO-65) 
1 32785U 08021C   26091.46514355  .00006088  00000+0  39231-3 0  9999
2 32785  97.8234  71.3548 0007164 296.0986  63.9505 15.08689019973628
